{
  "type": "FeatureCollection",
  "features": [
    {
      "type": "Feature",
      "properties": {
        "norad_id": 39227,
        "name": "ARIRANG-5 (KOMPSAT-5)",
        "group": "resource",
        "lat": -60.86937542160892,
        "lon": -165.69816661455872,
        "alt_km": 560.3004080100445,
        "timestamp": "2025-12-22T05:49:03.139222+00:00",
        "meta_object_name": "ARIRANG-5 (KOMPSAT-5)",
        "meta_object_id": "2013-042A",
        "meta_epoch": "2025-12-21T20:30:53.018784",
        "meta_mean_motion": 15.04544172,
        "meta_eccentricity": 0.0003419,
        "meta_inclination": 97.6156,
        "meta_ra_of_asc_node": 180.0283,
        "meta_arg_of_pericenter": 34.9057,
        "meta_mean_anomaly": 325.2393,
        "meta_ephemeris_type": 0,
        "meta_classification_type": "U",
        "meta_norad_cat_id": 39227,
        "meta_element_set_no": 999,
        "meta_rev_at_epoch": 67719,
        "meta_bstar": 0.00014516,
        "meta_mean_motion_dot": 1.974e-05,
        "meta_mean_motion_ddot": 0,
        "tle_line1": "1 39227U 13042A   25355.85478031  .00001974  00000+0  14516-3 0  9999",
        "tle_line2": "2 39227  97.6156 180.0283 0003419  34.9057 325.2393 15.04544172677196"
      },
      "geometry": {
        "type": "Point",
        "coordinates": [
          -165.69816661455872,
          -60.86937542160892
        ]
      }
    },
    {
      "type": "Feature",
      "properties": {
        "norad_id": 39418,
        "name": "SKYSAT-A",
        "group": "resource",
        "lat": -14.089890446090804,
        "lon": -135.70963130529375,
        "alt_km": 521.217424625911,
        "timestamp": "2025-12-22T05:49:03.139232+00:00",
        "meta_object_name": "SKYSAT-A",
        "meta_object_id": "2013-066C",
        "meta_epoch": "2025-12-21T16:15:06.132384",
        "meta_mean_motion": 15.11664021,
        "meta_eccentricity": 0.0021355,
        "meta_inclination": 97.4093,
        "meta_ra_of_asc_node": 45.6141,
        "meta_arg_of_pericenter": 204.1916,
        "meta_mean_anomaly": 155.8313,
        "meta_ephemeris_type": 0,
        "meta_classification_type": "U",
        "meta_norad_cat_id": 39418,
        "meta_element_set_no": 999,
        "meta_rev_at_epoch": 66165,
        "meta_bstar": 0.00017527,
        "meta_mean_motion_dot": 2.933e-05,
        "meta_mean_motion_ddot": 0,
        "tle_line1": "1 39418U 13066C   25355.67715431  .00002933  00000+0  17527-3 0  9996",
        "tle_line2": "2 39418  97.4093  45.6141 0021355 204.1916 155.8313 15.11664021661656"
      },
      "geometry": {
        "type": "Point",
        "coordinates": [
          -135.70963130529375,
          -14.089890446090804
        ]
      }
    },
    {
      "type": "Feature",
      "properties": {
        "norad_id": 39419,
        "name": "DUBAISAT-2",
        "group": "resource",
        "lat": -45.20497513620672,
        "lon": 158.78886912263965,
        "alt_km": 544.1770159399803,
        "timestamp": "2025-12-22T05:49:03.139242+00:00",
        "meta_object_name": "DUBAISAT-2",
        "meta_object_id": "2013-066D",
        "meta_epoch": "2025-12-21T20:51:32.903712",
        "meta_mean_motion": 15.08432627,
        "meta_eccentricity": 0.0010039,
        "meta_inclination": 97.4444,
        "meta_ra_of_asc_node": 345.9946,
        "meta_arg_of_pericenter": 285.8466,
        "meta_mean_anomaly": 74.1656,
        "meta_ephemeris_type": 0,
        "meta_classification_type": "U",
        "meta_norad_cat_id": 39419,
        "meta_element_set_no": 999,
        "meta_rev_at_epoch": 65964,
        "meta_bstar": 0.00024125,
        "meta_mean_motion_dot": 3.698e-05,
        "meta_mean_motion_ddot": 0,
        "tle_line1": "1 39419U 13066D   25355.86913083  .00003698  00000+0  24125-3 0  9992",
        "tle_line2": "2 39419  97.4444 345.9946 0010039 285.8466  74.1656 15.08432627659649"
      },
      "geometry": {
        "type": "Point",
        "coordinates": [
          158.78886912263965,
          -45.20497513620672
        ]
      }
    },
    {
      "type": "Feature",
      "properties": {
        "norad_id": 39574,
        "name": "GPM-CORE",
        "group": "resource",
        "lat": -5.6188937786554165,
        "lon": 3.494689894093513,
        "alt_km": 432.4149480100432,
        "timestamp": "2025-12-22T05:49:03.139253+00:00",
        "meta_object_name": "GPM-CORE",
        "meta_object_id": "2014-009C",
        "meta_epoch": "2025-12-21T19:41:25.495008",
        "meta_mean_motion": 15.44593534,
        "meta_eccentricity": 0.0009285,
        "meta_inclination": 64.9719,
        "meta_ra_of_asc_node": 182.2725,
        "meta_arg_of_pericenter": 248.8732,
        "meta_mean_anomaly": 111.1416,
        "meta_ephemeris_type": 0,
        "meta_classification_type": "U",
        "meta_norad_cat_id": 39574,
        "meta_element_set_no": 999,
        "meta_rev_at_epoch": 67041,
        "meta_bstar": 0.00014619,
        "meta_mean_motion_dot": 6.594e-05,
        "meta_mean_motion_ddot": 0,
        "tle_line1": "1 39574U 14009C   25355.82043397  .00006594  00000+0  14619-3 0  9995",
        "tle_line2": "2 39574  64.9719 182.2725 0009285 248.8732 111.1416 15.44593534670417"
      },
      "geometry": {
        "type": "Point",
        "coordinates": [
          3.494689894093513,
          -5.6188937786554165
        ]
      }
    },
    {
      "type": "Feature",
      "properties": {
        "norad_id": 39634,
        "name": "SENTINEL-1A",
        "group": "resource",
        "lat": -26.84737082897924,
        "lon": 5.518175881959232,
        "alt_km": 701.8205745977057,
        "timestamp": "2025-12-22T05:49:03.139263+00:00",
        "meta_object_name": "SENTINEL-1A",
        "meta_object_id": "2014-016A",
        "meta_epoch": "2025-12-21T20:04:02.639424",
        "meta_mean_motion": 14.59200109,
        "meta_eccentricity": 0.000128,
        "meta_inclination": 98.1795,
        "meta_ra_of_asc_node": 0.9429,
        "meta_arg_of_pericenter": 85.7395,
        "meta_mean_anomaly": 274.3951,
        "meta_ephemeris_type": 0,
        "meta_classification_type": "U",
        "meta_norad_cat_id": 39634,
        "meta_element_set_no": 999,
        "meta_rev_at_epoch": 62415,
        "meta_bstar": -3.0565e-05,
        "meta_mean_motion_dot": -1.9e-06,
        "meta_mean_motion_ddot": 0,
        "tle_line1": "1 39634U 14016A   25355.83614166 -.00000190  00000+0 -30565-4 0  9996",
        "tle_line2": "2 39634  98.1795   0.9429 0001280  85.7395 274.3951 14.59200109624158"
      },
      "geometry": {
        "type": "Point",
        "coordinates": [
          5.518175881959232,
          -26.84737082897924
        ]
      }
    },
    {
      "type": "Feature",
      "properties": {
        "norad_id": 39731,
        "name": "KAZEOSAT 1",
        "group": "resource",
        "lat": 78.60650377832498,
        "lon": 21.200335522888146,
        "alt_km": 743.501789959706,
        "timestamp": "2025-12-22T05:49:03.139274+00:00",
        "meta_object_name": "KAZEOSAT 1",
        "meta_object_id": "2014-024A",
        "meta_epoch": "2025-12-21T19:26:46.603104",
        "meta_mean_motion": 14.42066856,
        "meta_eccentricity": 0.00012,
        "meta_inclination": 98.343,
        "meta_ra_of_asc_node": 67.5142,
        "meta_arg_of_pericenter": 96.4014,
        "meta_mean_anomaly": 263.7313,
        "meta_ephemeris_type": 0,
        "meta_classification_type": "U",
        "meta_norad_cat_id": 39731,
        "meta_element_set_no": 999,
        "meta_rev_at_epoch": 61299,
        "meta_bstar": 4.1034e-05,
        "meta_mean_motion_dot": 9.2e-07,
        "meta_mean_motion_ddot": 0,
        "tle_line1": "1 39731U 14024A   25355.81026161  .00000092  00000+0  41034-4 0  9995",
        "tle_line2": "2 39731  98.3430  67.5142 0001200  96.4014 263.7313 14.42066856612998"
      },
      "geometry": {
        "type": "Point",
        "coordinates": [
          21.200335522888146,
          78.60650377832498
        ]
      }
    },
    {
      "type": "Feature",
      "properties": {
        "norad_id": 39766,
        "name": "ALOS-2",
        "group": "resource",
        "lat": 15.918027476459462,
        "lon": -86.77025791751682,
        "alt_km": 631.356032484091,
        "timestamp": "2025-12-22T05:49:03.139284+00:00",
        "meta_object_name": "ALOS-2",
        "meta_object_id": "2014-029A",
        "meta_epoch": "2025-12-21T20:57:49.279392",
        "meta_mean_motion": 14.79472447,
        "meta_eccentricity": 0.000139,
        "meta_inclination": 97.9232,
        "meta_ra_of_asc_node": 90.5898,
        "meta_arg_of_pericenter": 96.8709,
        "meta_mean_anomaly": 263.266,
        "meta_ephemeris_type": 0,
        "meta_classification_type": "U",
        "meta_norad_cat_id": 39766,
        "meta_element_set_no": 999,
        "meta_rev_at_epoch": 62536,
        "meta_bstar": 0.00017955,
        "meta_mean_motion_dot": 1.29e-05,
        "meta_mean_motion_ddot": 0,
        "tle_line1": "1 39766U 14029A   25355.87348703  .00001290  00000+0  17955-3 0  9998",
        "tle_line2": "2 39766  97.9232  90.5898 0001390  96.8709 263.2660 14.79472447625362"
      },
      "geometry": {
        "type": "Point",
        "coordinates": [
          -86.77025791751682,
          15.918027476459462
        ]
      }
    }
  ]
}